{
  "type": "FeatureCollection",
  "features": [

    {
      "type": "Feature",
      "properties": {
        "name": "Centro"
      },
      "geometry": {
        "type": "Polygon",
        "coordinates": [[
          [-74.0685, 4.8585],
          [-74.0550, 4.8585],
          [-74.0550, 4.8700],
          [-74.0685, 4.8700],
          [-74.0685, 4.8585]
        ]]
      }
    },

    {
      "type": "Feature",
      "properties": {
        "name": "La Capilla"
      },
      "geometry": {
        "type": "Polygon",
        "coordinates": [[
          [-74.0600, 4.8450],
          [-74.0480, 4.8450],
          [-74.0480, 4.8550],
          [-74.0600, 4.8550],
          [-74.0600, 4.8450]
        ]]
      }
    },

    {
      "type": "Feature",
      "properties": {
        "name": "Fagua"
      },
      "geometry": {
        "type": "Polygon",
        "coordinates": [[
          [-74.0900, 4.8350],
          [-74.0700, 4.8350],
          [-74.0700, 4.8500],
          [-74.0900, 4.8500],
          [-74.0900, 4.8350]
        ]]
      }
    },

    {
      "type": "Feature",
      "properties": {
        "name": "Fonqueta"
      },
}